NORAD_CAT_ID,OBJECT_NAME,OBJECT_TYPE,EPOCH,MEAN_MOTION,ECCENTRICITY,INCLINATION,RA_OF_ASC_NODE,ARG_OF_PERICENTER,MEAN_ANOMALY,BSTAR,MEAN_MOTION_DOT,MEAN_MOTION_DDOT,TLE_LINE0,TLE_LINE1,TLE_LINE2,SEMIMAJOR_AXIS,PERIOD,APOGEE,PERIGEE,DECAYED
52598.0,STARLINK-4019,PAYLOAD,2022-12-10 18:59:54,15.08816116,0.0001676999999999,53.2186,203.3433,13.6307,346.473,8.347e-06,-1.55e-06,0.0,0 STARLINK-4019,1 52598U 22052A   22344.79160491 -.00000155  00000-0  83470-5 0  9991,2 52598  53.2186 203.3433 0001677  13.6307 346.4730 15.08816116 32701,6917.953,95.439,540.979,538.658,0.0
52598.0,STARLINK-4019,PAYLOAD,2022-12-10 20:35:17,15.08830379,0.0002896,53.2181,203.0396,29.7409,330.3747,-0.00015478,-2.751e-05,0.0,0 STARLINK-4019,1 52598U 22052A   22344.85784267 -.00002751  00000-0 -15478-3 0  9997,2 52598  53.2181 203.0396 0002896  29.7409 330.3747 15.08830379 32286,6917.91,95.438,541.778,537.771,0.0
52598.0,STARLINK-4019,PAYLOAD,2022-12-10 23:46:03,15.08834201,0.0002856999999999,53.218,202.4444,30.7752,329.3407,-0.0001173,-2.155e-05,0.0,0 STARLINK-4019,1 52598U 22052A   22344.99031976 -.00002155  00000-0 -11730-3 0  9999,2 52598  53.2180 202.4444 0002857  30.7752 329.3407 15.08834201 32731,6917.898,95.438,541.74,537.7869999999998,0.0
52598.0,STARLINK-4019,PAYLOAD,2022-12-11 20:26:05,15.08818393,0.0002832,53.2178,198.5787,29.9318,330.1835,0.00016978,2.413e-05,0.0,0 STARLINK-4019,1 52598U 22052A   22345.85145049  .00002413  00000-0  16978-3 0  9996,2 52598  53.2178 198.5787 0002832  29.9318 330.1835 15.08818393 32867,6917.946,95.439,541.771,537.852,0.0
52598.0,STARLINK-4019,PAYLOAD,2022-12-11 23:36:51,15.08825002,0.0002086,53.2189,197.9819,50.8498,309.268,0.00013789,1.906e-05,0.0,0 STARLINK-4019,1 52598U 22052A   22345.98392790  .00001906  00000-0  13789-3 0  9990,2 52598  53.2189 197.9819 0002086  50.8498 309.2680 15.08825002 32456,6917.926,95.439,541.234,538.3480000000002,0.0
52598.0,STARLINK-4019,PAYLOAD,2022-12-12 13:55:18,15.08846685,0.0002874,53.2177,195.308,30.3034,329.8124,0.00024684,3.643e-05,0.0,0 STARLINK-4019,1 52598U 22052A   22346.58007578  .00003643  00000-0  24684-3 0  9990,2 52598  53.2177 195.3080 0002874  30.3034 329.8124 15.08846685 32540,6917.86,95.437,541.7130000000002,537.737,0.0
52598.0,STARLINK-4019,PAYLOAD,2022-12-13 07:24:33,15.08844104,0.000318,53.2174,192.0376,30.7394,329.3784,0.00015929,2.248e-05,0.0,0 STARLINK-4019,1 52598U 22052A   22347.30871751  .00002248  00000-0  15929-3 0  9995,2 52598  53.2174 192.0376 0003180  30.7394 329.3784 15.08844104 32656,6917.868,95.437,541.933,537.533,0.0
52598.0,STARLINK-4019,PAYLOAD,2022-12-13 13:46:05,15.0884576,0.0002671,53.2176,190.8461,35.887,324.2301,0.00015795,2.227e-05,0.0,0 STARLINK-4019,1 52598U 22052A   22347.57367692  .00002227  00000-0  15795-3 0  9996,2 52598  53.2176 190.8461 0002671  35.8870 324.2301 15.08845760 33129,6917.863,95.437,541.576,537.88,0.0
52598.0,STARLINK-4019,PAYLOAD,2022-12-13 23:18:24,15.08845737,0.0003691,53.2169,189.0656,29.142,330.9777,0.00017218,2.453e-05,0.0,0 STARLINK-4019,1 52598U 22052A   22347.97111367  .00002453  00000-0  17218-3 0  9999,2 52598  53.2169 189.0656 0003691  29.1420 330.9777 15.08845737 33188,6917.863,95.437,542.281,537.174,0.0
52598.0,STARLINK-4019,PAYLOAD,2022-12-14 19:58:23,15.08884599,0.0003095,53.2165,185.1981,29.1829,330.9336,-0.00048892,-8.072e-05,0.0,0 STARLINK-4019,1 52598U 22052A   22348.83221659 -.00008072  00000-0 -48892-3 0  9998,2 52598  53.2165 185.1981 0003095  29.1829 330.9336 15.08884599 33318,6917.744000000002,95.435,541.75,537.4680000000002,0.0
52598.0,STARLINK-4019,PAYLOAD,2022-12-14 23:09:10,15.08863009,0.0002944,53.2168,184.6032,33.7012,326.4167,-0.00010619,-1.98e-05,0.0,0 STARLINK-4019,1 52598U 22052A   22348.96469932 -.00001980  00000-0 -10619-3 0  9997,2 52598  53.2168 184.6032 0002944  33.7012 326.4167 15.08863009 32908,6917.81,95.436,541.712,537.638,0.0
52598.0,STARLINK-4019,PAYLOAD,2022-12-15 13:27:38,15.08850955,0.0003024,53.2169,181.9266,34.5818,325.5371,4.0855e-05,3.62e-06,0.0,0 STARLINK-4019,1 52598U 22052A   22349.56085984  .00000362  00000-0  40855-4 0  9992,2 52598  53.2169 181.9266 0003024  34.5818 325.5371 15.08850955 32993,6917.847,95.437,541.804,537.62,0.0
52598.0,STARLINK-4019,PAYLOAD,2022-12-15 19:49:10,15.08852624,0.0003013,53.2171,180.7376,34.5395,325.5793,6.1777e-05,6.95e-06,0.0,0 STARLINK-4019,1 52598U 22052A   22349.82581561  .00000695  00000-0  61777-4 0  9998,2 52598  53.2171 180.7376 0003013  34.5395 325.5793 15.08852624 33469,6917.842,95.437,541.7909999999998,537.622,0.0
52598.0,STARLINK-4019,PAYLOAD,2022-12-16 05:21:30,15.08841336,0.0003465,53.2177,178.9531,39.3682,320.7562,-6.151e-05,-1.268e-05,0.0,0 STARLINK-4019,1 52598U 22052A   22350.22326640 -.00001268  00000-0 -61510-4 0  9993,2 52598  53.2177 178.9531 0003465  39.3682 320.7562 15.08841336 33098,6917.876,95.437,542.138,537.344,0.0
52598.0,STARLINK-4019,PAYLOAD,2022-12-16 13:18:25,15.08863904,0.0002898999999999,53.2168,177.4658,36.6255,323.4935,-0.00032786,-5.507e-05,0.0,0 STARLINK-4019,1 52598U 22052A   22350.55446122 -.00005507  00000-0 -32786-3 0  9999,2 52598  53.2168 177.4658 0002899  36.6255 323.4935 15.08863904 33143,6917.807,95.436,541.678,537.6669999999998,0.0
52598.0,STARLINK-4019,PAYLOAD,2022-12-16 21:15:20,15.08858824,0.0003035,53.2175,175.979,36.5227,323.5972,-0.0002238,-3.851e-05,0.0,0 STARLINK-4019,1 52598U 22052A   22350.88565697 -.00003851  00000-0 -22380-3 0  9993,2 52598  53.2175 175.9790 0003035  36.5227 323.5972 15.08858824 33622,6917.823,95.436,541.7869999999998,537.5880000000002,0.0
52598.0,STARLINK-4019,PAYLOAD,2022-12-17 13:09:14,15.08825875,0.0003071,53.2175,173.0059,35.6986,324.4211,-0.00014317,-2.566e-05,0.0,0 STARLINK-4019,1 52598U 22052A   22351.54807986 -.00002566  00000-0 -14317-3 0  9990,2 52598  53.2175 173.0059 0003071  35.6986 324.4211 15.08825875 33728,6917.924,95.438,541.913,537.664,0.0
52598.0,STARLINK-4019,PAYLOAD,2022-12-17 19:30:46,15.08829091,0.0002985,53.217,171.8158,32.8486,327.2691,-9.7688e-05,-1.843e-05,0.0,0 STARLINK-4019,1 52598U 22052A   22351.81303725 -.00001843  00000-0 -97688-4 0  9992,2 52598  53.2170 171.8158 0002985  32.8486 327.2691 15.08829091 33767,6917.9140000000025,95.438,541.844,537.714,0.0
52598.0,STARLINK-4019,PAYLOAD,2022-12-18 13:00:01,15.08825212,0.0003026,53.2175,168.5451,35.3409,324.7783,2.1302e-05,5e-07,0.0,0 STARLINK-4019,1 52598U 22052A   22352.54168432  .00000050  00000-0  21302-4 0  9994,2 52598  53.2175 168.5451 0003026  35.3409 324.7783 15.08825212 33878,6917.926,95.438,541.884,537.697,0.0
52598.0,STARLINK-4019,PAYLOAD,2022-12-18 20:56:57,15.08828719,0.0003054,53.2175,167.0583,35.3856,324.7339,2.8022e-05,1.57e-06,0.0,0 STARLINK-4019,1 52598U 22052A   22352.87288523  .00000157  00000-0  28022-4 0  9998,2 52598  53.2175 167.0583 0003054  35.3856 324.7339 15.08828719 33923,6917.915,95.438,541.893,537.6669999999998,0.0
52598.0,STARLINK-4019,PAYLOAD,2022-12-19 04:53:52,15.08835869,0.0003019,53.2176,165.5715,36.5655,323.5542,0.00012929,1.77e-05,0.0,0 STARLINK-4019,1 52598U 22052A   22353.20408103  .00001770  00000-0  12929-3 0  9994,2 52598  53.2176 165.5715 0003019  36.5655 323.5542 15.08835869 33540,6917.893,95.438,541.847,537.67,0.0
52598.0,STARLINK-4019,PAYLOAD,2022-12-19 17:36:56,15.08850205,0.0002918,53.2176,163.1925,36.9963,323.123,0.00033996,5.128e-05,0.0,0 STARLINK-4019,1 52598U 22052A   22353.73399035  .00005128  00000-0  33996-3 0  9993,2 52598  53.2176 163.1925 0002918  36.9963 323.1230 15.08850205 34058,6917.849,95.437,541.7330000000002,537.696,0.0
52598.0,STARLINK-4019,PAYLOAD,2022-12-19 20:47:43,15.08853749,0.0003003999999999,53.2166,162.5981,36.9564,323.1635,0.00046794,7.170000000000001e-05,0.0,0 STARLINK-4019,1 52598U 22052A   22353.86647507  .00007170  00000-0  46794-3 0  9996,2 52598  53.2166 162.5981 0003004  36.9564 323.1635 15.08853749 33645,6917.8380000000025,95.437,541.781,537.625,0.0
52598.0,STARLINK-4019,PAYLOAD,2022-12-20 11:06:11,15.08854815,0.0003089,53.2161,159.9222,39.4231,320.6985,0.0003071,4.605e-05,0.0,0 STARLINK-4019,1 52598U 22052A   22354.46263261  .00004605  00000-0  30710-3 0  9995,2 52598  53.2161 159.9222 0003089  39.4231 320.6985 15.08854815 33735,6917.835,95.437,541.837,537.563,0.0
52598.0,STARLINK-4019,PAYLOAD,2022-12-21 10:56:57,15.08850531,0.0003268,53.2156,155.4613,41.6521,318.4719,-4.8382e-05,-1.059e-05,0.0,0 STARLINK-4019,1 52598U 22052A   22355.45622555 -.00001059  00000-0 -48382-4 0  9997,2 52598  53.2156 155.4613 0003268  41.6521 318.4719 15.08850531 33887,6917.848000000001,95.437,541.974,537.452,0.0
52598.0,STARLINK-4019,PAYLOAD,2022-12-21 22:04:40,15.08846575,0.0003052,53.2183,153.3809,38.1834,321.9374,-8.6688e-05,-1.668e-05,0.0,0 STARLINK-4019,1 52598U 22052A   22355.91990996 -.00001668  00000-0 -86688-4 0  9992,2 52598  53.2183 153.3809 0003052  38.1834 321.9374 15.08846575 33957,6917.86,95.437,541.837,537.614,0.0
52598.0,STARLINK-4019,PAYLOAD,2022-12-22 12:23:07,15.08844583,0.0003026,53.2183,150.7048,37.3949,322.7253,5.2674e-05,5.5e-06,0.0,0 STARLINK-4019,1 52598U 22052A   22356.51606358  .00000550  00000-0  52674-4 0  9990,2 52598  53.2183 150.7048 0003026  37.3949 322.7253 15.08844583 34472,6917.866,95.437,541.825,537.638,0.0
52598.0,STARLINK-4019,PAYLOAD,2022-12-22 20:20:03,15.08846,0.0002976,53.2184,149.2187,38.542,321.5784,3.7046e-05,3.01e-06,0.0,0 STARLINK-4019,1 52598U 22052A   22356.84726203  .00000301  00000-0  37046-4 0  9998,2 52598  53.2184 149.2187 0002976  38.5420 321.5784 15.08846000 34528,6917.861999999999,95.437,541.786,537.668,0.0
52598.0,STARLINK-4019,PAYLOAD,2022-12-23 12:13:55,15.08836497,0.0003121,53.2185,146.2449,37.6509,322.4701,1.2548e-05,-8.9e-07,0.0,0 STARLINK-4019,1 52598U 22052A   22357.50966865 -.00000089  00000-0  12548-4 0  9996,2 52598  53.2185 146.2449 0003121  37.6509 322.4701 15.08836497 34627,6917.891,95.438,541.915,537.597,0.0
